NORAD_CAT_ID,OBJECT_NAME,OBJECT_TYPE,EPOCH,MEAN_MOTION,ECCENTRICITY,INCLINATION,RA_OF_ASC_NODE,ARG_OF_PERICENTER,MEAN_ANOMALY,BSTAR,MEAN_MOTION_DOT,MEAN_MOTION_DDOT,TLE_LINE0,TLE_LINE1,TLE_LINE2,SEMIMAJOR_AXIS,PERIOD,APOGEE,PERIGEE,DECAYED
53833.0,STARLINK-4771,PAYLOAD,2024-01-30 12:17:53,15.08837716,0.0001211,53.2171,156.961,85.3637,274.7493,6.388e-05,7.29e-06,0.0,0 STARLINK-4771,1 53833U 22114R   24030.51242201  .00000729  00000-0  63880-4 0  9995,2 53833  53.2171 156.9610 0001211  85.3637 274.7493 15.08837716 76171,6917.887,95.438,540.59,538.915,0.0
53833.0,STARLINK-4771,PAYLOAD,2024-01-30 13:53:16,15.08838252,0.0001218,53.2168,156.6632,85.4136,274.6995,6.9648e-05,8.21e-06,0.0,0 STARLINK-4771,1 53833U 22114R   24030.57866155  .00000821  00000-0  69648-4 0  9992,2 53833  53.2168 156.6632 0001218  85.4136 274.6995 15.08838252 76723,6917.886,95.438,540.593,538.908,0.0
53833.0,STARLINK-4771,PAYLOAD,2024-01-31 12:08:40,15.08836228,0.0001273,53.2169,152.5006,84.2377,275.876,4.2062e-05,3.82e-06,0.0,0 STARLINK-4771,1 53833U 22114R   24031.50602570  .00000382  00000-0  42062-4 0  9998,2 53833  53.2169 152.5006 0001273  84.2377 275.8760 15.08836228 76868,6917.892,95.438,540.638,538.876,0.0
53833.0,STARLINK-4771,PAYLOAD,2024-01-31 18:30:12,15.08838699,0.0001393,53.2171,151.3081,98.5723,261.5427,5.289e-05,5.54e-06,0.0,0 STARLINK-4771,1 53833U 22114R   24031.77098343  .00000554  00000-0  52890-4 0  9995,2 53833  53.2171 151.3081 0001393  98.5723 261.5427 15.08838699 76368,6917.884,95.438,540.713,538.786,0.0
53833.0,STARLINK-4771,PAYLOAD,2024-02-01 11:59:27,15.08836469,0.0001481,53.2178,148.0356,101.7805,258.3354,4.139e-05,3.71e-06,0.0,0 STARLINK-4771,1 53833U 22114R   24032.49962680  .00000371  00000-0  41390-4 0  9999,2 53833  53.2178 148.0356 0001481 101.7805 258.3354 15.08836469 77018,6917.891,95.438,540.781,538.732,0.0
53833.0,STARLINK-4771,PAYLOAD,2024-02-02 11:50:14,15.08844426,0.0001287,53.2171,143.5744,87.4107,272.7032,7.9881e-05,9.84e-06,0.0,0 STARLINK-4771,1 53833U 22114R   24033.49322036  .00000984  00000-0  79881-4 0  9991,2 53833  53.2171 143.5744 0001287  87.4107 272.7032 15.08844426 76622,6917.867,95.437,540.622,538.842,0.0
53833.0,STARLINK-4771,PAYLOAD,2024-02-02 13:25:37,15.08844075,0.0001655,53.2177,143.2788,106.5945,253.5229,0.00012293,1.669e-05,0.0,0 STARLINK-4771,1 53833U 22114R   24033.55945998  .00001669  00000-0  12293-3 0  9990,2 53833  53.2177 143.2788 0001655 106.5945 253.5229 15.08844075 77171,6917.868,95.437,540.878,538.588,0.0
53833.0,STARLINK-4771,PAYLOAD,2024-02-02 15:01:00,15.08851564,0.0001933,53.2181,142.9826,57.585,302.5329,9.4063e-05,1.21e-05,0.0,0 STARLINK-4771,1 53833U 22114R   24033.62569956  .00001210  00000-0  94063-4 0  9992,2 53833  53.2181 142.9826 0001933  57.5850 302.5329 15.08851564 77182,6917.845,95.437,541.047,538.373,0.0
53833.0,STARLINK-4771,PAYLOAD,2024-02-03 11:41:01,15.08842213,0.0001663,53.2186,139.1173,71.7461,288.3712,3.8575e-05,3.26e-06,0.0,0 STARLINK-4771,1 53833U 22114R   24034.48682568  .00000326  00000-0  38575-4 0  9995,2 53833  53.2186 139.1173 0001663  71.7461 288.3712 15.08842213 77319,6917.874,95.437,540.889,538.588,0.0
53833.0,STARLINK-4771,PAYLOAD,2024-02-03 16:27:10,15.08843438,0.0001547,53.2192,138.2195,79.7822,280.3345,5.2796e-05,5.52e-06,0.0,0 STARLINK-4771,1 53833U 22114R   24034.68554305  .00000552  00000-0  52796-4 0  9996,2 53833  53.2192 138.2195 0001547  79.7822 280.3345 15.08843438 76807,6917.87,95.437,540.805,538.665,0.0
53833.0,STARLINK-4771,PAYLOAD,2024-02-04 13:07:11,15.08851673,0.0001558,53.2172,134.3549,72.6528,287.4634,-1.4294e-05,-5.16e-06,0.0,0 STARLINK-4771,1 53833U 22114R   24035.54665854 -.00000516  00000-0 -14294-4 0  9997,2 53833  53.2172 134.3549 0001558  72.6528 287.4634 15.08851673 77475,6917.845,95.437,540.788,538.632,0.0
53833.0,STARLINK-4771,PAYLOAD,2024-02-05 11:22:35,15.08837875,0.0001693,53.2179,130.1938,98.1644,261.954,2.2765e-05,7.4e-07,0.0,0 STARLINK-4771,1 53833U 22114R   24036.47402451  .00000074  00000-0  22765-4 0  9991,2 53833  53.2179 130.1938 0001693  98.1644 261.9540 15.08837875 77077,6917.887,95.438,540.923,538.581,0.0
53833.0,STARLINK-4771,PAYLOAD,2024-02-05 12:57:58,15.08843478,0.0001373,53.2159,129.9015,81.8322,278.2826,-8.1214e-06,-4.17e-06,0.0,0 STARLINK-4771,1 53833U 22114R   24036.54026248 -.00000417  00000-0 -81214-5 0  9993,2 53833  53.2159 129.9015 0001373  81.8322 278.2826 15.08843478 77629,6917.87,95.437,540.685,538.785,0.0
53833.0,STARLINK-4771,PAYLOAD,2024-02-05 22:30:17,15.08840156,0.0001362,53.2156,128.1156,82.1114,278.0033,-1.2961e-05,-4.94e-06,0.0,0 STARLINK-4771,1 53833U 22114R   24036.93770419 -.00000494  00000-0 -12961-4 0  9999,2 53833  53.2156 128.1156 0001362  82.1114 278.0033 15.08840156 77688,6917.88,95.438,540.687,538.803,0.0
53833.0,STARLINK-4771,PAYLOAD,2024-02-06 11:13:22,15.0884377,0.0001437,53.216,125.7364,77.3011,282.8142,1.6386e-06,-2.62e-06,0.0,0 STARLINK-4771,1 53833U 22114R   24037.46762354 -.00000262  00000-0  16386-5 0  9995,2 53833  53.2160 125.7364 0001437  77.3011 282.8142 15.08843770 77760,6917.869,95.437,540.728,538.74,0.0
53833.0,STARLINK-4771,PAYLOAD,2024-02-07 12:39:32,15.08841189,0.0001345,53.2162,120.9792,88.1748,271.9398,5.2766e-05,5.52e-06,0.0,0 STARLINK-4771,1 53833U 22114R   24038.52746364  .00000552  00000-0  52766-4 0  9998,2 53833  53.2162 120.9792 0001345  88.1748 271.9398 15.08841189 77381,6917.877,95.437,540.672,538.811,0.0
53833.0,STARLINK-4771,PAYLOAD,2024-02-08 10:54:57,15.08839133,0.0001635,53.2179,116.8182,109.2304,250.8865,-6.0746e-05,-1.255e-05,0.0,0 STARLINK-4771,1 53833U 22114R   24039.45483259 -.00001255  00000-0 -60746-4 0  9992,2 53833  53.2179 116.8182 0001635 109.2304 250.8865 15.08839133 77528,6917.883,95.438,540.879,538.617,0.0
53833.0,STARLINK-4771,PAYLOAD,2024-02-08 14:05:43,15.08843505,0.0001521,53.2175,116.2225,105.079,255.0371,-3.6122e-05,-8.63e-06,0.0,0 STARLINK-4771,1 53833U 22114R   24039.58730927 -.00000863  00000-0 -36122-4 0  9998,2 53833  53.2175 116.2225 0001521 105.0790 255.0371 15.08843505 78082,6917.87,95.437,540.787,538.682,0.0
53833.0,STARLINK-4771,PAYLOAD,2024-02-09 10:45:43,15.0884677,0.0001476,53.2169,112.3564,81.0162,279.0997,0.00014638,2.043e-05,0.0,0 STARLINK-4771,1 53833U 22114R   24040.44842511  .00002043  00000-0  14638-3 0  9995,2 53833  53.2169 112.3564 0001476  81.0162 279.0997 15.08846770 77674,6917.86,95.437,540.746,538.704,0.0
53833.0,STARLINK-4771,PAYLOAD,2024-02-09 12:21:06,15.08849279,0.0001592,53.2177,112.0593,77.8532,282.2639,0.00018245,2.618e-05,0.0,0 STARLINK-4771,1 53833U 22114R   24040.51466373  .00002618  00000-0  18245-3 0  9997,2 53833  53.2177 112.0593 0001592  77.8532 282.2639 15.08849279 78223,6917.852,95.437,540.818,538.616,0.0
53833.0,STARLINK-4771,PAYLOAD,2024-02-10 04:14:58,15.08840703,0.0001397,53.2177,109.0849,96.1865,263.9286,7.4958e-05,9.05e-06,0.0,0 STARLINK-4771,1 53833U 22114R   24041.17707115  .00000905  00000-0  74958-4 0  9993,2 53833  53.2177 109.0849 0001397  96.1865 263.9286 15.08840703 77786,6917.878,95.438,540.71,538.777,0.0
53833.0,STARLINK-4771,PAYLOAD,2024-02-10 10:36:31,15.08842445,0.0001498,53.2176,107.895,87.1347,272.9817,8.6733e-05,1.093e-05,0.0,0 STARLINK-4771,1 53833U 22114R   24041.44203100  .00001093  00000-0  86733-4 0  9991,2 53833  53.2176 107.8950 0001498  87.1347 272.9817 15.08842445 78361,6917.873,95.437,540.774,538.702,0.0
53833.0,STARLINK-4771,PAYLOAD,2024-02-11 10:27:18,15.0884839,0.000175,53.2178,103.4348,76.301,283.8177,-9.1419e-06,-4.34e-06,0.0,0 STARLINK-4771,1 53833U 22114R   24042.43563028 -.00000434  00000-0 -91419-5 0  9997,2 53833  53.2178 103.4348 0001750  76.3010 283.8177 15.08848390 77975,6917.855,95.437,540.93,538.509,0.0
53833.0,STARLINK-4771,PAYLOAD,2024-02-12 08:42:41,15.08849744,0.0001756,53.218,99.2735,92.6231,267.4962,0.00019393,2.8e-05,0.0,0 STARLINK-4771,1 53833U 22114R   24043.36298154  .00002800  00000-0  19393-3 0  9991,2 53833  53.2180  99.2735 0001756  92.6231 267.4962 15.08849744 78652,6917.851,95.437,540.93,538.501,0.0
53833.0,STARLINK-4771,PAYLOAD,2024-02-13 03:47:20,15.08834614,0.0001456,53.218,95.7064,98.0801,262.0357,-2.8347e-05,-7.39e-06,0.0,0 STARLINK-4771,1 53833U 22114R   24044.15787793 -.00000739  00000-0 -28347-4 0  9992,2 53833  53.2180  95.7064 0001456  98.0801 262.0357 15.08834614 78231,6917.897,95.438,540.769,538.755,0.0
53833.0,STARLINK-4771,PAYLOAD,2024-02-13 10:08:53,15.08830152,0.0001344,53.2179,94.5156,102.9876,257.1267,-6.8333e-05,-1.375e-05,0.0,0 STARLINK-4771,1 53833U 22114R   24044.42284276 -.00001375  00000-0 -68333-4 0  9996,2 53833  53.2179  94.5156 0001344 102.9876 257.1267 15.08830152 78813,6917.91,95.438,540.705,538.846,0.0
53833.0,STARLINK-4771,PAYLOAD,2024-02-13 19:41:12,15.08837912,0.0001456,53.2175,92.7312,102.3022,257.8134,8.3998e-06,-1.54e-06,0.0,0 STARLINK-4771,1 53833U 22114R   24044.82027802 -.00000154  00000-0  83998-5 0  9998,2 53833  53.2175  92.7312 0001456 102.3022 257.8134 15.08837912 78871,6917.887,95.438,540.759,538.745,0.0
53833.0,STARLINK-4771,PAYLOAD,2024-02-14 03:38:07,15.08842844,0.0001297,53.2155,91.2406,93.0755,267.0386,1.4729e-05,-5.3e-07,0.0,0 STARLINK-4771,1 53833U 22114R   24045.15147360 -.00000053  00000-0  14729-4 0  9990,2 53833  53.2155  91.2406 0001297  93.0755 267.0386 15.08842844 78387,6917.872,95.437,540.634,538.839,0.0
53833.0,STARLINK-4771,PAYLOAD,2024-02-14 09:59:39,15.08853014,0.0001457,53.2161,90.0532,102.2773,257.8382,0.00043293,6.611e-05,0.0,0 STARLINK-4771,1 53833U 22114R   24045.41643071  .00006611  00000-0  43293-3 0  9991,2 53833  53.2161  90.0532 0001457 102.2773 257.8382 15.08853014 78960,6917.841,95.437,540.714,538.698,0.0
53833.0,STARLINK-4771,PAYLOAD,2024-02-14 19:31:58,15.08842102,0.0001505,53.2159,88.2684,97.5262,262.5902,0.0002777,4.135e-05,0.0,0 STARLINK-4771,1 53833U 22114R   24045.81387588  .00004135  00000-0  27770-3 0  9994,2 53833  53.2159  88.2684 0001505  97.5262 262.5902 15.08842102 79022,6917.874,95.437,540.78,538.698,0.0
